STARLINK-31842          
1 59672U 24084U   26068.30748548 -.00000113  00000+0  54137-5 0  9998
2 59672  43.0059  40.5821 0001090 258.4725 101.6004 15.27578838104354
2025-313BC              
1 67298U 25313BC  26068.18968176  .00075331  00000+0  26410-2 0  9997
2 67298  97.3985 144.8110 0008478 328.9209  31.1528 15.29126358  7890
